#aV2023 11  9  0  0  0.00000000     288 DD+AD WGS84 FIT  NGA
## 2287 345600.00000000   300.00000000 60257 0.0000000000000
+   32     1  2  3  4  5  6  7  8  9 10 11 12 13 14 15 16 17
+         18 19 20 21 22 23 24 25 26 27 28 29 30 31 32  0  0
+          0  0  0  0  0  0  0  0  0  0  0  0  0  0  0  0  0
+          0  0  0  0  0  0  0  0  0  0  0  0  0  0  0  0  0
+          0  0  0  0  0  0  0  0  0  0  0  0  0  0  0  0  0
++         2  2  2  2  2  2  2  2  2  2  2  2  2  2  2  2  2
++         2  2  2  2  2  2  2  2  2  2  2  2  2  2  2  0  0
++         0  0  0  0  0  0  0  0  0  0  0  0  0  0  0  0  0
++         0  0  0  0  0  0  0  0  0  0  0  0  0  0  0  0  0
++         0  0  0  0  0  0  0  0  0  0  0  0  0  0  0  0  0
%c cc cc ccc ccc cccc cccc cccc cccc ccccc ccccc ccccc ccccc
%c cc cc ccc ccc cccc cccc cccc cccc ccccc ccccc ccccc ccccc
%f  0.0000000  0.000000000  0.00000000000  0.000000000000000
%f  0.0000000  0.000000000  0.00000000000  0.000000000000000
%i    0    0    0    0      0      0      0      0         0
%i    0    0    0    0      0      0      0      0         0
/*      NGA, ST. LOUIS,MO.                                  
/*   EPHEMERIS COMPUTED FROM 2 DAYS OF DATA                 
/*   EPOCHA v8 SMOOTHER                                     
/*   G2139 IERS2010 SATIGS SATAPC                           
*  2023 11  9  2  5  0.00000000
P  1  14238.593330 -19449.772122  10412.705945    163.203381                    
V  1  -2796.671469  13671.355361  28759.831876     -0.000504                    
P  2  15297.876111 -14575.299904  16477.669063   -531.433685                    
V  2  -3158.745383  19870.663684  21355.304165      0.049726                    
P  3  20421.670720 -12174.075989 -11871.080743    -26.615447                    
V  3  14930.574869  -1086.924890  27235.645353      0.247967                    
P  4   9613.156275 -11999.055388 -21638.752914    207.691353                    
V  4  17760.119399  20999.621185  -3878.704885      0.105206                    
P  5 -26030.537100   5311.824474  -1727.104881   -149.664559                    
V  5   1304.677331  -2883.865988 -31766.328035     -0.014453                    
P  6  -8650.387803 -15051.414965 -20003.592513    510.807501                    
V  6   9250.009696 -23786.473890  13941.574438     -0.097059                    
P  7   4218.010302 -25410.165115   5810.205692     18.406085                    
V  7   5397.884955  -5443.176431 -30665.574480     -0.100010                    
P  8  16563.596950  -3476.030000  20486.852233   -151.191495                    
V  8  17267.194845  19596.425511 -10190.071564     -0.018173                    
P  9   -697.743962 -19520.762037 -18061.756858     -8.497505                    
V  9  16678.968999  15615.656394 -17662.368205      0.111621                    
P 10  11466.966812  12006.431029  20997.149182    -60.634531                    
V 10 -25466.750299   5688.945124  10430.991083     -0.015019                    
P 11 -14992.657366  -2863.493707 -21711.002281   -451.952869                    
V 11   9801.665928 -25808.735100  -3412.627085     -0.164475                    
P 12 -22227.892448  10245.926056 -10500.320027   -444.954176                    
V 12 -13144.319425   -672.714274  27976.120710     -0.041166                    
P 13 -18896.434373  -7477.810952  17013.299991    593.224185                    
V 13 -10784.321257 -19107.419813 -19928.480087      0.041465                    
P 14  -7388.643805 -14209.644546  21232.770007    237.896809                    
V 14  26451.957727  -5081.089089   5638.738137      0.108333                    
P 15 -15614.379034   6293.505359  20100.418665     95.270786                    
V 15 -19674.383252 -18050.949177  -9186.165347      0.037445                    
P 16  25977.504708   1750.644375  -6673.419848   -425.337155                    
V 16  -7662.869849   3042.209902 -30034.453966      0.065392                    
P 17 -11796.478317 -22828.327408   6881.601115    723.417005                    
V 17   6906.105349   4997.623098  30469.552515     -0.002693                    
P 18  -3878.891530  25195.285636   7119.453792   -473.644620                    
V 18  -5312.624838   7718.908514 -30436.892142     -0.110485                    
P 19 -16878.442641 -20597.193215  -2725.099824    396.330097                    
V 19    -62.797263  -3860.490400  31501.582272      0.052192                    
P 20 -22802.399623  -1340.653782 -13348.802913    402.592352                    
V 20  15012.935158  -8635.441127 -24871.936210     -0.019279                    
P 21  15879.350209 -10557.475638  18592.645092    144.755901                    
V 21  -3559.679794  22713.228614  17305.227485     -0.009675                    
P 22 -14067.282626 -12033.531335  19389.456487     87.395476                    
V 22  23477.130960  -3907.533022  15237.117391     -0.070361                    
P 23  -2766.755388  15480.054094  21386.125761     95.815849                    
V 23 -26556.339466   5514.771591  -7609.877851      0.062436                    
P 24 -14779.669561  16071.875717  14431.496092   -366.741786                    
V 24   1448.785456 -19442.335454  22944.281491     -0.091139                    
P 25 -10748.118743  15877.082537 -18588.643805    476.552149                    
V 25 -22900.328664   3255.078472  16574.843334      0.016955                    
P 26  21255.876556   5774.949166 -15226.491916    217.925408                    
V 26 -17706.109533   7369.170782 -21751.866743     -0.025509                    
P 27  20943.729499   9741.362552  13218.111131    -67.289239                    
V 27   9899.244674  14003.296934 -25098.466549     -0.053699                    
P 28   8534.043821  16892.524314 -18661.391875    -42.070179                    
V 28  -8159.449778  22233.880903  16417.105433     -0.082039                    
P 29  -1137.616999  19179.694532 -18336.614040   -610.228802                    
V 29 -15065.595783 -17693.341296 -17713.012695      0.000158                    
P 30  -3485.352282 -22121.796586  14197.803253   -470.227036                    
V 30   8527.216999 -16102.094301 -23455.696862      0.039658                    
P 31  13422.667315   7977.909047 -21651.867499   -225.554384                    
V 31  -9695.302228  25294.303955   3751.660730     -0.003886                    
P 32  15974.266008  21143.676630   3216.999938   -583.444511                    
V 32  -4515.037121  -1103.655182  31260.100473     -0.046221                    
EOF
